<?xml version="1.0" encoding="UTF-8"?>
<kml xmlns="http://www.opengis.net/kml/2.2"><Document><Placemark><name>terreno</name><Polygon><outerBoundaryIs><LinearRing><coordinates>-75.4409694671631,2.9005202483525747,0 -75.44260025024414,2.896795568576803,0 -75.44071197509767,2.892250488828102,0 -75.43135643005373,2.8913504386607207,0 -75.4369354248047,2.89640330017332,0 -75.43848037719728,2.8984617761351554,0 -75.43890953063966,2.8994910127120743,0 -75.43993949890138,2.900005630649394,0 -75.4401969909668,2.878048391059417,0 -75.4409694671631,2.9005202483525747,0</coordinates></LinearRing></outerBoundaryIs></Polygon></Placemark></Document></kml>